ONEWEB-0627             
1 55168U 23004AE  24063.84083693  .00000048  00000+0  91775-4 0  9994
2 55168  87.9265 172.0545 0002161 128.0268 232.1059 13.17649772 57578
ONEWEB-0628             
1 55169U 23004AF  24063.76698549  .00000178  00000+0  45816-3 0  9996
2 55169  87.9042 156.8939 0002427 115.0051 245.1330 13.12443385 58451
ONEWEB-0629             
1 55170U 23004AG  24063.83609332  .00000099  00000+0  22189-3 0  9998
2 55170  87.9260 172.0505 0002420 107.6645 252.4751 13.17650920 57573
ONEWEB-0631             
1 55171U 23004AH  24063.77661211  .00000111  00000+0  24846-3 0  9993
2 55171  87.9228 141.6849 0001533 124.0083 236.1195 13.18686706 59579
ONEWEB-0709             
1 55172U 23004AJ  24063.82977407 -.00000501  00000+0 -14492-2 0  9997
2 55172  87.9025 187.1839 0000631 129.5442 230.5741 13.11417948 56380
ONEWEB-0710             
1 55173U 23004AK  24063.82976704  .00000058  00000+0  11556-3 0  9991
2 55173  87.9261 172.0625 0001689 113.9479 246.1829 13.17650054 57575
ONEWEB-0711             
1 55174U 23004AL  24063.87849289  .00000295  00000+0  79758-3 0  9995
2 55174  87.9024 187.1449 0002477 125.3012 234.8348 13.11413088 56353
ONEWEB-0713             
1 55175U 23004AM  24063.89633624 -.00000338  00000+0 -98984-3 0  9994
2 55175  87.9026 187.1487 0002057 114.8699 245.2643 13.11413802 56343
ONEWEB-0715             
1 55176U 23004AN  24063.89147083 -.00000291  00000+0 -85682-3 0  9993
2 55176  87.9023 187.1503 0002045 109.6194 250.5155 13.11412730 56389
ONEWEB-0716             
1 55177U 23004AP  24063.82344004  .00000078  00000+0  16753-3 0  9993
2 55177  87.9263 172.0528 0001902  98.7133 261.4214 13.17650224 57575
ONEWEB-0717             
1 55178U 23004AQ  24063.80603914  .00000021  00000+0  21695-4 0  9990
2 55178  87.9262 172.0225 0002206 135.0647 225.0663 13.17649710 57620
ONEWEB-0719             
1 55179U 23004AR  24063.81711318 -.00000044  00000+0 -14662-3 0  9992
2 55179  87.9258 172.0070 0002180 106.1225 254.0147 13.17648417 57572
ONEWEB-0530             
1 55796U 23029A   24063.49305820  .00000034  00000+0  51415-4 0  9990
2 55796  87.9127  80.7933 0002286 106.2722 253.8663 13.20771459 50834
ONEWEB-0534             
1 55797U 23029B   24063.55618361  .00000065  00000+0  12774-3 0  9993
2 55797  87.9127  80.7876 0002145  88.0431 272.0948 13.20771571 50844
ONEWEB-0556             
1 55798U 23029C   24063.56249993  .00000015  00000+0  45012-5 0  9994
2 55798  87.9127  80.7803 0002915  93.4383 266.7084 13.20768053 50848
ONEWEB-0562             
1 55799U 23029D   24063.54988432  .00000062  00000+0  12049-3 0  9995
2 55799  87.9129  80.7725 0002956 107.4254 252.7202 13.20771692 50842
ONEWEB-0563             
1 55800U 23029E   24063.54356833  .00000116  00000+0  25326-3 0  9994
2 55800  87.9127  80.7889 0002332  91.4322 268.7078 13.20771826 50836
ONEWEB-0564             
1 55801U 23029F   24063.53724871  .00000065  00000+0  12752-3 0  9997
2 55801  87.9129  80.7746 0002100 106.1412 253.9953 13.20771896 50844
ONEWEB-0638             
1 55802U 23029G   24063.61979858  .00000246  00000+0  63030-3 0  9990
2 55802  87.8906  96.0594 0002626  86.7474 273.3957 13.14503718 49625
ONEWEB-0639             
1 55803U 23029H   24063.68248921  .00000028  00000+0  38262-4 0  9996
2 55803  87.9139 111.2922 0002134  55.1815 304.9518 13.19726461 48702
ONEWEB-0640             
1 55804U 23029J   24063.62930449  .00000151  00000+0  37335-3 0  9990
2 55804  87.8905  96.0554 0002716  82.3142 277.8296 13.14504390 49640
ONEWEB-0641             
1 55805U 23029K   24063.67775213  .00000076  00000+0  15776-3 0  9993
2 55805  87.9136 111.2785 0001880  88.1298 272.0050 13.19726146 48713
ONEWEB-0642             
1 55806U 23029L   24063.67301581 -.00000013  00000+0 -64299-4 0  9995
2 55806  87.9141 111.2976 0001681  61.9052 298.2250 13.19726112 48702
ONEWEB-0643             
1 55807U 23029M   24063.59916981  .00000071  00000+0  15696-3 0  9991
2 55807  87.8905  96.0373 0001056  72.4574 287.6671 13.14504345 49610
ONEWEB-0644             
1 55808U 23029N   24063.66827790 -.00000027  00000+0 -10012-3 0  9999
2 55808  87.9143 111.2928 0001652  78.1556 281.9761 13.19725910 48701
ONEWEB-0645             
1 55809U 23029P   24063.89178964  .00000041  00000+0  69454-4 0  9996
2 55809  87.9142 111.2505 0002157  80.1357 280.0019 13.19726546 48730
ONEWEB-0646             
1 55810U 23029Q   24063.61851551  .00000096  00000+0  20630-3 0  9990
2 55810  87.9139 111.3064 0001717  91.8325 268.3004 13.19726075 48688
ONEWEB-0648             
1 55811U 23029R   24063.64357428 -.00000111  00000+0 -33307-3 0  9993
2 55811  87.8908  95.9982 0002074  61.2136 298.9202 13.14503864 49624
ONEWEB-0649             
1 55812U 23029S   24063.65719549 -.00001972  00000+0 -49587-2 0  9993
2 55812  87.9141 111.2956 0002070  84.8563 275.2806 13.19731771 48722
ONEWEB-0650             
1 55813U 23029T   24063.57665230  .00000011  00000+0 -60631-5 0  9990
2 55813  87.9141 111.3119 0001719  87.5716 272.5614 13.19726963 48683
ONEWEB-0652             
1 55814U 23029U   24063.62454621  .00000170  00000+0  42410-3 0  9995
2 55814  87.8907  96.0145 0002094  98.5123 261.6244 13.14504336 49594
ONEWEB-0653             
1 55815U 23029V   24063.60869368  .00000195  00000+0  49223-3 0  9998
2 55815  87.8908  95.9947 0002332  94.6888 265.4508 13.14503876 49621
ONEWEB-0654             
1 55816U 23029W   24063.60393373  .00000183  00000+0  45915-3 0  9998
2 55816  87.8905  96.0088 0002404 105.1118 255.0278 13.14504349 49648
ONEWEB-0656             
1 55817U 23029X   24063.53094071  .00000095  00000+0  20206-3 0  9992
2 55817  87.9129  80.7180 0001932 113.9485 246.1851 13.20771830 50840
ONEWEB-0657             
1 55818U 23029Y   24063.64773178  .00000019  00000+0  14709-4 0  9995
2 55818  87.9141 111.3030 0001567 126.1829 233.9448 13.19726275 48701
ONEWEB-0658             
1 55819U 23029Z   24063.64300634  .00000008  00000+0 -13565-4 0  9997
2 55819  87.9137 111.2404 0001677  77.5370 282.5951 13.19724888 48711
ONEWEB-0660             
1 55820U 23029AA  24063.58173312 -.00000171  00000+0 -49465-3 0  9992
2 55820  87.8905  95.9890 0002320  82.4779 277.6614 13.14503978 49628
ONEWEB-0661             
1 55821U 23029AB  24063.61662227  .00000271  00000+0  69587-3 0  9991
2 55821  87.8905  96.0472 0002350  84.3828 275.7569 13.14502057 49610
ONEWEB-0662             
1 55822U 23029AC  24063.57539633 -.00000168  00000+0 -48737-3 0  9992
2 55822  87.8906  96.0637 0002075  82.0936 278.0429 13.14501672 49651
ONEWEB-0663             
1 55823U 23029AD  24063.60038345  .00000081  00000+0  16752-3 0  9995
2 55823  87.9128  80.7654 0002123  80.2859 279.8514 13.20773701 50844
ONEWEB-0664             
1 55824U 23029AE  24063.59407553  .00000109  00000+0  23728-3 0  9997
2 55824  87.9127  80.7791 0002502  92.9450 267.1970 13.20771916 50846
ONEWEB-0665             
1 55825U 23029AF  24063.61344620  .00000202  00000+0  51100-3 0  9995
2 55825  87.8906  96.0229 0002186  83.3934 276.7445 13.14504365 49639
ONEWEB-0666             
1 55826U 23029AG  24063.51200470  .00000063  00000+0  12294-3 0  9995
2 55826  87.9128  80.7866 0001930 105.5979 254.5367 13.20771029 50848
ONEWEB-0667             
1 55827U 23029AH  24063.58143129 -.00000009  00000+0 -54643-4 0  9997
2 55827  87.9127  80.7066 0002264  86.1983 273.9409 13.20771303 50847
ONEWEB-0669             
1 55828U 23029AJ  24063.57670425 -.00000028  00000+0 -10124-3 0  9997
2 55828  87.9127  80.7457 0002533 107.2051 252.9359 13.20772650 50849
ONEWEB-0670             
1 55829U 23029AK  24063.51513945 -.00000033  00000+0 -12246-3 0  9998
2 55829  87.8910  96.0452 0002492  87.1665 272.9750 13.14501136 49640
ONEWEB-0671             
1 55830U 23029AL  24063.63826416  .00000010  00000+0 -72050-5 0  9998
2 55830  87.9139 111.3048 0002245  90.7420 269.3970 13.19725617 48698
ONEWEB-0672             
1 55831U 23029AM  24063.49621705  .00000039  00000+0  63524-4 0  9992
2 55831  87.9128  80.7449 0001846 102.3930 257.7410 13.20770926 50837
ONEWEB-0673             
1 55832U 23029AN  24063.61457063  .00000085  00000+0  18004-3 0  9994
2 55832  87.9137 111.2780 0002136  90.0889 270.0488 13.19727255 48694
ONEWEB-0674             
1 55833U 23029AP  24063.63566000 -.00000038  00000+0 -13716-3 0  9994
2 55833  87.8905  96.0318 0002572  90.6686 269.4738 13.14501643 49641
ONEWEB-0675             
1 55834U 23029AQ  24063.63036582  .00000073  00000+0  14945-3 0  9994
2 55834  87.9141 111.3029 0001550 101.9694 258.1612 13.19725341 48716
ONEWEB-0720             
1 55835U 23029AR  24063.62246970  .00000128  00000+0  28715-3 0  9999
2 55835  87.9139 111.3065 0001952  79.9825 280.1528 13.19725347 48638
ONEWEB-0537             
1 56046U 23043A   24063.91200987  .00000014  00000+0  31308-5 0  9998
2 56046  87.9085  34.9961 0001594  92.4008 267.7306 13.16597488 49055
ONEWEB-0538             
1 56047U 23043B   24063.90568055  .00000081  00000+0  17912-3 0  9998
2 56047  87.9084  35.0159 0001654  77.0063 283.1252 13.16595847 49063
ONEWEB-0546             
1 56048U 23043C   24063.89302024  .00000031  00000+0  46896-4 0  9998
2 56048  87.9086  34.9804 0001711 113.4927 246.6384 13.16594531 49057
ONEWEB-0547             
1 56049U 23043D   24063.86308408 -.00000114  00000+0 -30827-3 0  9998
2 56049  87.9228  50.2354 0001434  77.9343 282.1952 13.21824993 47873
ONEWEB-0548             
1 56050U 23043E   24063.84235698 -.00000024  00000+0 -96024-4 0  9990
2 56050  87.9087  35.0350 0002554  84.5124 275.6298 13.16594580 49041
ONEWEB-0549             
1 56051U 23043F   24063.47671145  .00000047  00000+0  81989-4 0  9998
2 56051  87.9228  50.3124 0001902  81.2653 278.8696 13.21826092 47828
ONEWEB-0550             
1 56052U 23043G   24063.46410220  .00000138  00000+0  30279-3 0  9999
2 56052  87.9224  50.3263 0002112  83.0536 277.0838 13.21826130 47825
